COMMENT,ORIGINATOR,NORAD_CAT_ID,OBJECT_NAME,OBJECT_TYPE,CLASSIFICATION_TYPE,INTLDES,EPOCH,EPOCH_MICROSECONDS,MEAN_MOTION,ECCENTRICITY,INCLINATION,RA_OF_ASC_NODE,ARG_OF_PERICENTER,MEAN_ANOMALY,EPHEMERIS_TYPE,ELEMENT_SET_NO,REV_AT_EPOCH,BSTAR,MEAN_MOTION_DOT,MEAN_MOTION_DDOT,FILE,TLE_LINE0,TLE_LINE1,TLE_LINE2,OBJECT_ID,OBJECT_NUMBER,SEMIMAJOR_AXIS,PERIOD,APOGEE,PERIGEE
"GENERATED VIA SPACETRACK.ORG API","JSPOC","12113","COSMOS 1234","PAYLOAD","U","80102G","2016-01-08 10:39:19","350144","12.56655231","0.0034172","73.9947","108.8542","101.4872","332.9063","0","999","60759","-9.1149e-05","-3.1e-07","0","1977644","0 COSMOS 1234","1 12113U 80102G   16008.44397396 -.00000031  00000-0 -91149-4 0  9993","2 12113  73.9947 108.8542 0034172 101.4872 332.9063 12.56655231607596","1980-102G","12113","7814.917","114.589","1463.487","1410.077"
"GENERATED VIA SPACETRACK.ORG API","JSPOC","40938","BD-20","PAYLOAD","U","15053A","2016-01-08 10:40:08","440896","1.00277875","0.0042678","54.9082","302.6043","167.0084","255.4948","0","999","113","0","-1.7e-06","0","1977683","0 BD-20","1 40938U 15053A   16008.44454214 -.00000170  00000-0  00000+0 0  9999","2 40938  54.9082 302.6043 0042678 167.0084 255.4948  1.00277875  1134","2015-053A","40938","42163.024","1436.009","35964.833","35604.946"
"GENERATED VIA SPACETRACK.ORG API","JSPOC","40902","ZDPS 2B","PAYLOAD","U","15049D","2016-01-08 10:40:16","482144","15.13894309","0.0013294","97.4464","19.1007","244.176","252.1606","0","999","1671","0.00016575","2.94e-05","0","1977705","0 ZDPS 2B","1 40902U 15049D   16008.44463521  .00002940  00000-0  16575-3 0  9990","2 40902  97.4464  19.1007 0013294 244.1760 252.1606 15.13894309 16712","2015-049D","40902","6902.474","95.118","533.515","515.163"
"GENERATED VIA SPACETRACK.ORG API","JSPOC","17359","COSMOS 1816","PAYLOAD","U","87009A","2016-01-08 10:40:21","325728","13.7439688","0.0033244","82.9253","333.6661","33.5517","82.9817","0","999","45139","1.8505e-05","3.3e-07","0","1978186","0 COSMOS 1816","1 17359U 87009A   16008.44469127 +.00000033 +00000-0 +18505-4 0  9990","2 17359 082.9253 333.6661 0033244 033.5517 082.9817 13.74396880451390","1987-009A","17359","7361.964","104.773","1008.303","959.355"
"GENERATED VIA SPACETRACK.ORG API","JSPOC","15332","SL-14 R/B","ROCKET BODY","U","84105B","2016-01-08 10:40:25","815072","14.83190084","0.001996","82.5361","319.4536","306.6726","192.9393","0","999","68865","2.04e-05","1.91e-06","0","1977704","0 SL-14 R/B","1 15332U 84105B   16008.44474323  .00000191  00000-0  20400-4 0  9999","2 15332  82.5361 319.4536 0019960 306.6726 192.9393 14.83190084688654","1984-105B","15332","6997.409","97.088","633.241","605.307"
"GENERATED VIA SPACETRACK.ORG API","JSPOC","37153","STRELA 3","PAYLOAD","U","10043B","2016-01-08 10:40:42","338208","12.40718612","0.00082","82.4595","293.2797","74.1249","286.0731","0","999","24160","0.00014467","2.9e-07","0","1977611","0 STRELA 3","1 37153U 10043B   16008.44493447  .00000029  00000-0  14467-3 0  9997","2 37153  82.4595 293.2797 0008200  74.1249 286.0731 12.40718612241602","2010-043B","37153","7881.695","116.061","1510.023","1497.097"
"GENERATED VIA SPACETRACK.ORG API","JSPOC","24945","IRIDIUM 32","PAYLOAD","U","97051B","2016-01-08 10:40:45","386400","14.34215249","0.0001966","86.3986","146.9019","92.6422","267.4999","0","999","95906","5.5327e-05","1.75e-06","0","1977721","0 IRIDIUM 32","1 24945U 97051B   16008.44496975  .00000175  00000-0  55327-4 0  9998","2 24945  86.3986 146.9019 0001966  92.6422 267.4999 14.34215249959063","1997-051B","24945","7155.812","100.403","779.084","776.270"
"GENERATED VIA SPACETRACK.ORG API","JSPOC","10637","IUE","PAYLOAD","U","78012A","2016-01-08 10:41:12","66720","1.00058701","0.1518797","43.6764","343.3593","201.5786","184.2056","0","999","9143","0","-2.55e-06","0","1977811","0 IUE","1 10637U 78012A   16008.44527855 -.00000255  00000-0  00000+0 0  9992","2 10637  43.6764 343.3593 1518797 201.5786 184.2056  1.00058701 91431","1978-012A","10637","42224.573","1439.155","42259.493","29433.382"
"GENERATED VIA SPACETRACK.ORG API","JSPOC","28114","COSMOS 2403 (GLONASS)","PAYLOAD","U","03056C","2016-01-08 10:41:12","66720","2.13105091","0.0040624","63.2453","197.3614","63.7503","91.2172","0","999","9399","0","1.09e-06","0","1978186","0 COSMOS 2403 (GLONASS)","1 28114U 03056C   16008.44527855 +.00000109 +00000-0 +00000-0 0  9995","2 28114 063.2453 197.3614 0040624 063.7503 091.2172 02.13105091093996","2003-056C","28114","25507.777","675.722","19233.265","19026.019"
"GENERATED VIA SPACETRACK.ORG API","JSPOC","26102","MTI","PAYLOAD","U","00014A","2016-01-08 10:41:52","783584","15.39950812","0.0010228","97.5112","153.8871","16.403","20.8229","0","999","87340","0.00019881","7.845e-05","0","1977602","0 MTI","1 26102U 00014A   16008.44574981  .00007845  00000-0  19881-3 0  9997","2 26102  97.5112 153.8871 0010228  16.4030  20.8229 15.39950812873406","2000-014A","26102","6824.391","93.509","453.236","439.276"
"GENERATED VIA SPACETRACK.ORG API","JSPOC","30324","CZ-3A R/B","ROCKET BODY","U","07003B","2016-01-08 10:41:55","932864","3.28915718","0.6562404","24.3586","77.1372","22.9951","356.3609","0","999","7956","0.0015444","0.00047366","1.2886e-06","1977677","0 CZ-3A R/B","1 30324U 07003B   16008.44578626  .00047366  12886-5  15444-2 0  9995","2 30324  24.3586  77.1372 6562404  22.9951 356.3609  3.28915718 79567","2007-003B","30324","19099.064","437.802","25254.506","187.351"
"GENERATED VIA SPACETRACK.ORG API","JSPOC","21104","COSMOS 2129","PAYLOAD","U","91009E","2016-01-08 10:42:35","284608","12.53687266","0.0024624","74.03","261.1623","19.6522","90.8341","0","999","13993","9.6778e-05","-1e-08","0","1977652","0 COSMOS 2129","1 21104U 91009E   16008.44624172 -.00000001  00000-0  96778-4 0  9995","2 21104  74.0300 261.1623 0024624  19.6522  90.8341 12.53687266139934","1991-009E","21104","7827.246","114.861","1468.385","1429.838"
"GENERATED VIA SPACETRACK.ORG API","JSPOC","27370","RHESSI","PAYLOAD","U","02004A","2016-01-08 10:43:05","177280","15.24469666","0.0010618","38.0377","5.2074","108.03","252.1626","0","999","76588","0.00021874","5.373e-05","0","1977665","0 RHESSI","1 27370U 02004A   16008.44658770  .00005373  00000-0  21874-3 0  9994","2 27370  38.0377   5.2074 0010618 108.0300 252.1626 15.24469666765882","2002-004A","27370","6870.515","94.459","499.675","485.085"
"GENERATED VIA SPACETRACK.ORG API","JSPOC","13070","MOLNIYA 1-53","PAYLOAD","U","82015A","2016-01-08 10:43:08","945184","2.00661093","0.7128278","62.6041","210.2505","262.1216","254.97","0","999","24806","0.004865","6.51e-06","0","1978186","0 MOLNIYA 1-53","1 13070U 82015A   16008.44663131 +.00000651 +00000-0 +48650-2 0  9997","2 13070 062.6041 210.2505 7128278 262.1216 254.9700 02.00661093248066","1982-015A","13070","26551.744","717.627","39100.430","1246.787"
"GENERATED VIA SPACETRACK.ORG API","JSPOC","26858","ATLAS 2AS CENTAUR R/B","ROCKET BODY","U","01026B","2016-01-08 10:43:36","818688","4.15707324","0.0090944","44.9217","266.8226","129.1305","101.4608","0","999","22102","0","0","0","1977778","0 ATLAS 2AS CENTAUR R/B","1 26858U 01026B   16008.44695392  .00000000  00000-0  00000+0 0  9994","2 26858  44.9217 266.8226 0090944 129.1305 101.4608  4.15707324221027","2001-026B","26858","16338.420","346.397","10108.873","9811.696"
"GENERATED VIA SPACETRACK.ORG API","JSPOC","10091","NTS 2","PAYLOAD","U","77053A","2016-01-08 10:43:39","897984","2.00446931","0.0061735","64.3","39.6784","230.23","252.3206","0","999","28224","0","-4e-08","0","1977606","0 NTS 2","1 10091U 77053A   16008.44698956 -.00000004  00000-0  00000+0 0  9993","2 10091  64.3000  39.6784 0061735 230.2300 252.3206  2.00446931282242","1977-053A","10091","26570.653","718.394","20356.552","20028.484"
"GENERATED VIA SPACETRACK.ORG API","JSPOC","16404","SL-12 R/B(2)","ROCKET BODY","U","85118F","2016-01-08 10:43:53","47200","2.1316503","0.0006094","65.4463","90.1032","20.5931","57.0304","0","999","23402","0","-1e-07","0","1978186","0 SL-12 R/B(2)","1 16404U 85118F   16008.44714175 -.00000010 +00000-0 +00000-0 0  9998","2 16404 065.4463 090.1032 0006094 020.5931 057.0304 02.13165030234020","1985-118F","16404","25502.995","675.532","19140.402","19109.319"
"GENERATED VIA SPACETRACK.ORG API","JSPOC","40379","GRIFEX","PAYLOAD","U","15003D","2016-01-08 10:43:54","372576","15.09142374","0.0151902","99.0943","84.6593","302.3464","56.313","0","999","5147","0.00016158","3.254e-05","0","1977642","0 GRIFEX","1 40379U 15003D   16008.44715709  .00003254  00000-0  16158-3 0  9992","2 40379  99.0943  84.6593 0151902 302.3464  56.3130 15.09142374 51475","2015-003D","40379","6916.956","95.418","643.891","433.751"
"GENERATED VIA SPACETRACK.ORG API","JSPOC","18939","COSMOS 1926","PAYLOAD","U","88016C","2016-01-08 10:44:03","772032","12.48804496","0.0012469","74.0055","6.0426","193.8607","279.1642","0","999","26883","3.2888e-05","-1.1e-07","0","1977626","0 COSMOS 1926","1 18939U 88016C   16008.44726588 -.00000011  00000-0  32888-4 0  9998","2 18939  74.0055   6.0426 0012469 193.8607 279.1642 12.48804496268831","1988-016C","18939","7847.636","115.310","1479.286","1459.716"
"GENERATED VIA SPACETRACK.ORG API","JSPOC","35362","MEASAT 3A","PAYLOAD","U","09032A","2016-01-08 10:44:18","584448","1.00267304","0.0002322","0.0265","253.1071","8.5693","98.2973","0","999","2401","0","-2.33e-06","0","1977803","0 MEASAT 3A","1 35362U 09032A   16008.44743732 -.00000233  00000-0  00000+0 0  9990","2 35362   0.0265 253.1071 0002322   8.5693  98.2973  1.00267304 24011","2009-032A","35362","42165.988","1436.161","35797.644","35778.062"
